NORAD_CAT_ID,OBJECT_NAME,OBJECT_TYPE,EPOCH,MEAN_MOTION,ECCENTRICITY,INCLINATION,RA_OF_ASC_NODE,ARG_OF_PERICENTER,MEAN_ANOMALY,BSTAR,MEAN_MOTION_DOT,MEAN_MOTION_DDOT,TLE_LINE0,TLE_LINE1,TLE_LINE2,SEMIMAJOR_AXIS,PERIOD,APOGEE,PERIGEE,DECAYED
54089.0,STARLINK-5143,PAYLOAD,2023-12-07 12:13:24,15.08811141,0.0001961,53.2189,69.3931,133.8653,226.2501,-0.00028348,-4.793e-05,0.0,0 STARLINK-5143,1 54089U 22136AQ  23341.50930721 -.00004793  00000-0 -28348-3 0  9993,2 54089  53.2189  69.3931 0001961 133.8653 226.2501 15.08811141 63189,6917.969,95.439,541.19,538.477,0.0
54089.0,STARLINK-5143,PAYLOAD,2023-12-07 15:24:11,15.08803324,0.0001436,53.2186,68.7964,106.9809,253.134,-0.00034688,-5.799e-05,0.0,0 STARLINK-5143,1 54089U 22136AQ  23341.64179942 -.00005799  00000-0 -34688-3 0  9999,2 54089  53.2186  68.7964 0001436 106.9809 253.1340 15.08803324 63203,6917.992,95.44,540.851,538.864,0.0
54089.0,STARLINK-5143,PAYLOAD,2023-12-08 12:04:10,15.08834658,0.0001745,53.2194,64.9345,93.1509,266.9683,8.4817e-05,1.062e-05,0.0,0 STARLINK-5143,1 54089U 22136AQ  23342.50289479  .00001062  00000-0  84817-4 0  9999,2 54089  53.2194  64.9345 0001745  93.1509 266.9683 15.08834658 63330,6917.897,95.438,540.969,538.555,0.0
54089.0,STARLINK-5143,PAYLOAD,2023-12-08 15:14:55,15.08844381,0.0001515,53.2187,64.3371,102.9986,257.1175,0.00016222,2.295e-05,0.0,0 STARLINK-5143,1 54089U 22136AQ  23342.63536608  .00002295  00000-0  16222-3 0  9995,2 54089  53.2187  64.3371 0001515 102.9986 257.1175 15.08844381 63352,6917.867,95.437,540.78,538.684,0.0
54089.0,STARLINK-5143,PAYLOAD,2023-12-09 11:54:56,15.08843504,0.0001512,53.2181,60.4718,89.8086,270.308,0.0002676,3.974e-05,0.0,0 STARLINK-5143,1 54089U 22136AQ  23343.49648272  .00003974  00000-0  26760-3 0  9994,2 54089  53.2181  60.4718 0001512  89.8086 270.3080 15.08843504 63010,6917.87,95.437,540.781,538.689,0.0
54089.0,STARLINK-5143,PAYLOAD,2023-12-10 11:45:43,15.08846554,0.0001546,53.218,56.0094,112.7155,247.4001,-3.9537e-05,-9.17e-06,0.0,0 STARLINK-5143,1 54089U 22136AQ  23344.49008917 -.00000917  00000-0 -39537-4 0  9994,2 54089  53.2180  56.0094 0001546 112.7155 247.4001 15.08846554 63631,6917.86,95.437,540.795,538.656,0.0
54089.0,STARLINK-5143,PAYLOAD,2023-12-11 11:36:30,15.08851182,0.0001452,53.2183,51.5476,103.2069,256.9085,-6.995e-05,-1.401e-05,0.0,0 STARLINK-5143,1 54089U 22136AQ  23345.48368270 -.00001401  00000-0 -69950-4 0  9996,2 54089  53.2183  51.5476 0001452 103.2069 256.9085 15.08851182 63318,6917.846,95.437,540.716,538.707,0.0
54089.0,STARLINK-5143,PAYLOAD,2023-12-12 09:51:54,15.08835572,0.0001495,53.2189,47.3871,103.7468,256.3691,5.5309e-06,-2e-06,0.0,0 STARLINK-5143,1 54089U 22136AQ  23346.41104963 -.00000200  00000-0  55309-5 0  9996,2 54089  53.2189  47.3871 0001495 103.7468 256.3691 15.08835572 63920,6917.894,95.438,540.793,538.725,0.0
54089.0,STARLINK-5143,PAYLOAD,2023-12-13 11:18:04,15.08844029,0.0001426,53.2187,42.6292,91.7019,268.4137,6.1294e-05,6.88e-06,0.0,0 STARLINK-5143,1 54089U 22136AQ  23347.47088402  .00000688  00000-0  61294-4 0  9990,2 54089  53.2187  42.6292 0001426  91.7019 268.4137 15.08844029 64089,6917.868,95.437,540.72,538.747,0.0
54089.0,STARLINK-5143,PAYLOAD,2023-12-14 11:08:52,15.08810989,0.0001894,53.2196,38.1711,65.5081,294.6109,0.00047026,7.198e-05,0.0,0 STARLINK-5143,1 54089U 22136AQ  23348.46449301  .00007198  00000-0  47026-3 0  9998,2 54089  53.2196  38.1711 0001894  65.5081 294.6109 15.08810989 64237,6917.969,95.439,541.144,538.524,0.0
54089.0,STARLINK-5143,PAYLOAD,2023-12-15 10:59:39,15.08804052,0.0002076,53.2197,33.708,66.043,294.078,0.00051582,7.923e-05,0.0,0 STARLINK-5143,1 54089U 22136AQ  23349.45809507  .00007923  00000-0  51582-3 0  9994,2 54089  53.2197  33.7080 0002076  66.0430 294.0780 15.08804052 63912,6917.99,95.44,541.291,538.419,0.0
54089.0,STARLINK-5143,PAYLOAD,2023-12-16 09:15:02,15.08841596,0.0001718,53.2186,29.5464,70.3087,289.809,-3.5329e-06,-3.44e-06,0.0,0 STARLINK-5143,1 54089U 22136AQ  23350.38545007 -.00000344  00000-0 -35329-5 0  9995,2 54089  53.2186  29.5464 0001718  70.3087 289.8090 15.08841596 64525,6917.876,95.437,540.929,538.552,0.0
54089.0,STARLINK-5143,PAYLOAD,2023-12-17 09:05:50,15.08837583,0.0001556,53.218,25.0858,80.0559,280.0608,3.8749e-05,3.29e-06,0.0,0 STARLINK-5143,1 54089U 22136AQ  23351.37905118  .00000329  00000-0  38749-4 0  9997,2 54089  53.2180  25.0858 0001556  80.0559 280.0608 15.08837583 64203,6917.888,95.438,540.829,538.676,0.0
54089.0,STARLINK-5143,PAYLOAD,2023-12-18 08:56:36,15.08849232,0.0001482,53.2176,20.6247,86.4613,273.6549,0.00012809,1.752e-05,0.0,0 STARLINK-5143,1 54089U 22136AQ  23352.37264082  .00001752  00000-0  12809-3 0  9995,2 54089  53.2176  20.6247 0001482  86.4613 273.6549 15.08849232 64824,6917.852,95.437,540.742,538.692,0.0
54089.0,STARLINK-5143,PAYLOAD,2023-12-19 08:47:24,15.08834723,0.0001419,53.2183,16.1614,97.6641,262.4513,3.3908e-06,-2.34e-06,0.0,0 STARLINK-5143,1 54089U 22136AQ  23353.36625649 -.00000234  00000-0  33908-5 0  9995,2 54089  53.2183  16.1614 0001419  97.6641 262.4513 15.08834723 64977,6917.897,95.438,540.743,538.78,0.0
54089.0,STARLINK-5143,PAYLOAD,2023-12-20 07:02:48,15.08838163,0.0001457,53.2184,11.9984,96.8985,263.2173,-4.7896e-05,-1.05e-05,0.0,0 STARLINK-5143,1 54089U 22136AQ  23354.29361976 -.00001050  00000-0 -47896-4 0  9996,2 54089  53.2184  11.9984 0001457  96.8985 263.2173 15.08838163 64642,6917.886,95.438,540.759,538.743,0.0
54089.0,STARLINK-5143,PAYLOAD,2023-12-21 08:28:57,15.08851779,0.0001414,53.2184,7.2397,86.5691,273.5463,0.00026626,3.953e-05,0.0,0 STARLINK-5143,1 54089U 22136AQ  23355.35344634  .00003953  00000-0  26626-3 0  9995,2 54089  53.2184   7.2397 0001414  86.5691 273.5463 15.08851779 65275,6917.844,95.437,540.688,538.731,0.0
54089.0,STARLINK-5143,PAYLOAD,2023-12-22 08:19:45,15.08844003,0.0001566,53.2177,2.7824,78.0491,282.0676,0.00010595,1.399e-05,0.0,0 STARLINK-5143,1 54089U 22136AQ  23356.34705723  .00001399  00000-0  10595-3 0  9995,2 54089  53.2177   2.7824 0001566  78.0491 282.0676 15.08844003 65424,6917.868,95.437,540.816,538.65,0.0
54089.0,STARLINK-5143,PAYLOAD,2023-12-23 09:45:56,15.08842626,0.0002247,53.2196,358.0163,62.26,297.862,8.9507e-05,1.137e-05,0.0,0 STARLINK-5143,1 54089U 22136AQ  23357.40690123  .00001137  00000-0  89507-4 0  9990,2 54089  53.2196 358.0163 0002247  62.2600 297.8620 15.08842626 65581,6917.872,95.437,541.292,538.183,0.0
54089.0,STARLINK-5143,PAYLOAD,2023-12-24 06:25:57,15.08841916,0.0001989,53.2182,354.1622,84.4738,275.6481,0.00016074,2.271e-05,0.0,0 STARLINK-5143,1 54089U 22136AQ  23358.26802269  .00002271  00000-0  16074-3 0  9999,2 54089  53.2182 354.1622 0001989  84.4738 275.6481 15.08841916 65246,6917.875,95.437,541.115,538.364,0.0
54089.0,STARLINK-5143,PAYLOAD,2023-12-25 03:05:57,15.0884311,0.0001948,53.218,350.2964,105.7192,254.4015,9.825e-05,1.276e-05,0.0,0 STARLINK-5143,1 54089U 22136AQ  23359.12914173  .00001276  00000-0  98250-4 0  9994,2 54089  53.2180 350.2964 0001948 105.7192 254.4015 15.08843110 65848,6917.871,95.437,541.083,538.388,0.0
54089.0,STARLINK-5143,PAYLOAD,2023-12-25 06:16:43,15.08844324,0.0002041,53.2185,349.7004,115.0135,245.1069,8.3358e-05,1.039e-05,0.0,0 STARLINK-5143,1 54089U 22136AQ  23359.26162030  .00001039  00000-0  83358-4 0  9996,2 54089  53.2185 349.7004 0002041 115.0135 245.1069 15.08844324 65391,6917.867,95.437,541.144,538.32,0.0
54089.0,STARLINK-5143,PAYLOAD,2023-12-26 02:56:45,15.0883629,0.000203,53.2192,345.8364,113.8381,246.2824,-1.6168e-06,-3.14e-06,0.0,0 STARLINK-5143,1 54089U 22136AQ  23360.12274550 -.00000314  00000-0 -16168-5 0  9997,2 54089  53.2192 345.8364 0002030 113.8381 246.2824 15.08836290 65992,6917.892,95.438,541.161,538.352,0.0
54089.0,STARLINK-5143,PAYLOAD,2023-12-26 04:32:08,15.08836568,0.0002124,53.2189,345.5376,117.0842,243.0367,3.7927e-06,-2.28e-06,0.0,0 STARLINK-5143,1 54089U 22136AQ  23360.18898539 -.00000228  00000-0  37927-5 0  9991,2 54089  53.2189 345.5376 0002124 117.0842 243.0367 15.08836568 65535,6917.891,95.438,541.225,538.287,0.0
54089.0,STARLINK-5143,PAYLOAD,2023-12-26 22:01:22,15.08840529,0.0002086,53.2196,342.2626,118.4007,241.7195,1.1288e-05,-1.09e-06,0.0,0 STARLINK-5143,1 54089U 22136AQ  23360.91762671 -.00000109  00000-0  11288-4 0  9998,2 54089  53.2196 342.2626 0002086 118.4007 241.7195 15.08840529 65648,6917.879,95.438,541.187,538.301,0.0
54089.0,STARLINK-5143,PAYLOAD,2023-12-27 04:22:55,15.08846759,0.0001762,53.2196,341.0763,98.904,261.2152,0.00010434,1.373e-05,0.0,0 STARLINK-5143,1 54089U 22136AQ  23361.18258125  .00001373  00000-0  10434-3 0  9996,2 54089  53.2196 341.0763 0001762  98.9040 261.2152 15.08846759 66154,6917.86,95.437,540.944,538.506,0.0
54089.0,STARLINK-5143,PAYLOAD,2023-12-27 21:52:10,15.08832195,0.0001944,53.2207,337.8079,43.0056,317.1087,0.00019219,2.771e-05,0.0,0 STARLINK-5143,1 54089U 22136AQ  23361.91123032  .00002771  00000-0  19219-3 0  9998,2 54089  53.2207 337.8079 0001944  43.0056 317.1087 15.08832195 65796,6917.904,95.438,541.114,538.424,0.0
54089.0,STARLINK-5143,PAYLOAD,2023-12-28 04:13:43,15.08834194,0.0001671,53.2193,336.6163,64.6354,295.4811,3.1902e-05,2.2e-06,0.0,0 STARLINK-5143,1 54089U 22136AQ  23362.17619435  .00000220  00000-0  31902-4 0  9995,2 54089  53.2193 336.6163 0001671  64.6354 295.4811 15.08834194 66300,6917.898,95.438,540.919,538.607,0.0
54089.0,STARLINK-5143,PAYLOAD,2023-12-29 04:04:29,15.08843397,0.0001665,53.2191,332.155,72.6437,287.4737,3.6929e-05,3e-06,0.0,0 STARLINK-5143,1 54089U 22136AQ  23363.16978919  .00000300  00000-0  36929-4 0  9993,2 54089  53.2191 332.1550 0001665  72.6437 287.4737 15.08843397 66452,6917.87,95.437,540.887,538.583,0.0
54089.0,STARLINK-5143,PAYLOAD,2023-12-29 07:15:15,15.08848467,0.000185,53.2208,331.5602,101.4702,258.6498,7.0041e-05,8.27e-06,0.0,0 STARLINK-5143,1 54089U 22136AQ  23363.30226390  .00000827  00000-0  70041-4 0  9995,2 54089  53.2208 331.5602 0001850 101.4702 258.6498 15.08848467 66002,6917.855,95.437,540.999,538.44,0.0
